NORAD_CAT_ID,OBJECT_NAME,OBJECT_TYPE,EPOCH,MEAN_MOTION,ECCENTRICITY,INCLINATION,RA_OF_ASC_NODE,ARG_OF_PERICENTER,MEAN_ANOMALY,BSTAR,MEAN_MOTION_DOT,MEAN_MOTION_DDOT,TLE_LINE0,TLE_LINE1,TLE_LINE2,SEMIMAJOR_AXIS,PERIOD,APOGEE,PERIGEE,DECAYED
55633.0,STARLINK-5498,PAYLOAD,2023-05-05 04:53:31,14.98348014,0.0003162,70.0006,305.3544,269.7079,90.3718,0.00020232,2.323e-05,0.0,0 STARLINK-5498,1 55633U 23021F   23125.20383311  .00002323  00000-0  20232-3 0  9996,2 55633  70.0006 305.3544 0003162 269.7079  90.3718 14.98348014 12297,6950.137,96.106,574.2,569.805,0.0
55633.0,STARLINK-5498,PAYLOAD,2023-05-05 16:06:29,14.98324028,0.0003618,69.9987,304.1734,268.4255,91.6489,-3.4187e-05,-5.01e-06,0.0,0 STARLINK-5498,1 55633U 23021F   23125.67117117 -.00000501  00000-0 -34187-4 0  9999,2 55633  69.9987 304.1734 0003618 268.4255  91.6489 14.98324028 12364,6950.211,96.107,574.591,569.562,0.0
55633.0,STARLINK-5498,PAYLOAD,2023-05-05 20:54:53,14.98328595,0.0003622,69.9987,303.669,271.3313,88.7431,2.1298e-05,1.61e-06,0.0,0 STARLINK-5498,1 55633U 23021F   23125.87144804  .00000161  00000-0  21298-4 0  9993,2 55633  69.9987 303.6690 0003622 271.3313  88.7431 14.98328595 12695,6950.197,96.107,574.58,569.545,0.0
55633.0,STARLINK-5498,PAYLOAD,2023-05-06 14:32:22,14.98328963,0.0003272,69.9992,301.8174,266.4585,93.62,-5.7472e-06,-1.62e-06,0.0,0 STARLINK-5498,1 55633U 23021F   23126.60581076 -.00000162  00000-0 -57472-5 0  9998,2 55633  69.9992 301.8174 0003272 266.4585  93.6200 14.98328963 12806,6950.196,96.107,574.335,569.787,0.0
55633.0,STARLINK-5498,PAYLOAD,2023-05-06 20:56:53,14.9833425,0.0003226,69.9992,301.1442,266.6295,93.4495,4.6839e-05,4.66e-06,0.0,0 STARLINK-5498,1 55633U 23021F   23126.87284598  .00000466  00000-0  46839-4 0  9995,2 55633  69.9992 301.1442 0003226 266.6295  93.4495 14.98334250 12547,6950.18,96.107,574.287,569.803,0.0
55633.0,STARLINK-5498,PAYLOAD,2023-05-07 12:58:14,14.98348089,0.0003236,69.9988,299.4611,269.26,90.8189,-0.00029928,-3.664e-05,0.0,0 STARLINK-5498,1 55633U 23021F   23127.54044319 -.00003664  00000-0 -29928-3 0  9999,2 55633  69.9988 299.4611 0003236 269.2600  90.8189 14.98348089 12949,6950.137,96.106,574.251,569.753,0.0
55633.0,STARLINK-5498,PAYLOAD,2023-05-07 20:58:55,14.98326683,0.0003154,69.9989,298.6194,267.2433,92.8365,0.00015331,1.737e-05,0.0,0 STARLINK-5498,1 55633U 23021F   23127.87424800  .00001737  00000-0  15331-3 0  9992,2 55633  69.9989 298.6194 0003154 267.2433  92.8365 14.98326683 12694,6950.203,96.107,574.26,569.876,0.0
55633.0,STARLINK-5498,PAYLOAD,2023-05-08 21:00:55,14.98333654,0.0003163,69.9991,296.0949,267.9057,92.174,8.781e-05,9.55e-06,0.0,0 STARLINK-5498,1 55633U 23021F   23128.87564623  .00000955  00000-0  87810-4 0  9994,2 55633  69.9991 296.0949 0003163 267.9057  92.1740 14.98333654 13143,6950.182,96.107,574.245,569.848,0.0
55633.0,STARLINK-5498,PAYLOAD,2023-05-09 13:02:16,14.98330132,0.0003209,69.9989,294.4111,268.1713,91.9079,5.4461e-05,5.57e-06,0.0,0 STARLINK-5498,1 55633U 23021F   23129.54324913  .00000557  00000-0  54461-4 0  9999,2 55633  69.9989 294.4111 0003209 268.1713  91.9079 14.98330132 13247,6950.192,96.107,574.288,569.827,0.0
55633.0,STARLINK-5498,PAYLOAD,2023-05-10 13:04:17,14.9833009,0.0003146,69.9993,291.8857,268.6681,91.4117,1.5987e-05,9.8e-07,0.0,0 STARLINK-5498,1 55633U 23021F   23130.54465014  .00000098  00000-0  15987-4 0  9999,2 55633  69.9993 291.8857 0003146 268.6681  91.4117 14.98330090 13396,6950.193,96.107,574.244,569.871,0.0
55633.0,STARLINK-5498,PAYLOAD,2023-05-10 19:28:49,14.98333954,0.0003123,69.9993,291.2123,268.7486,91.3315,5.6643e-05,5.83e-06,0.0,0 STARLINK-5498,1 55633U 23021F   23130.81168651  .00000583  00000-0  56643-4 0  9999,2 55633  69.9993 291.2123 0003123 268.7486  91.3315 14.98333954 13431,6950.181,96.107,574.216,569.875,0.0
55633.0,STARLINK-5498,PAYLOAD,2023-05-11 11:30:10,14.98332219,0.0003097,69.9994,289.5291,268.1044,91.976,5.6034e-05,5.76e-06,0.0,0 STARLINK-5498,1 55633U 23021F   23131.47928709  .00000576  00000-0  56034-4 0  9996,2 55633  69.9994 289.5291 0003097 268.1044  91.9760 14.98332219 13536,6950.186,96.107,574.204,569.899,0.0
55633.0,STARLINK-5498,PAYLOAD,2023-05-11 16:18:34,14.98332566,0.0003097,69.9994,289.0241,268.1439,91.9366,5.6223e-05,5.78e-06,0.0,0 STARLINK-5498,1 55633U 23021F   23131.67956663  .00000578  00000-0  56223-4 0  9990,2 55633  69.9994 289.0241 0003097 268.1439  91.9366 14.98332566 13564,6950.185,96.107,574.202,569.897,0.0
55633.0,STARLINK-5498,PAYLOAD,2023-05-12 03:31:31,14.98330971,0.0003045,69.9997,287.8461,267.8378,92.2433,5.9461e-05,6.17e-06,0.0,0 STARLINK-5498,1 55633U 23021F   23132.14688718  .00000617  00000-0  59461-4 0  9997,2 55633  69.9997 287.8461 0003045 267.8378  92.2433 14.98330971 13330,6950.19,96.107,574.171,569.939,0.0
55633.0,STARLINK-5498,PAYLOAD,2023-05-12 19:32:51,14.98331118,0.0003093,69.9996,286.1632,268.423,91.6574,3.1334e-05,2.81e-06,0.0,0 STARLINK-5498,1 55633U 23021F   23132.81448771  .00000281  00000-0  31334-4 0  9990,2 55633  69.9996 286.1632 0003093 268.4230  91.6574 14.98331118 13735,6950.189,96.107,574.204,569.905,0.0
55633.0,STARLINK-5498,PAYLOAD,2023-05-13 03:33:31,14.98332948,0.000318,69.9996,285.3213,270.2541,89.8254,5.0911e-05,5.15e-06,0.0,0 STARLINK-5498,1 55633U 23021F   23133.14828551  .00000515  00000-0  50911-4 0  9997,2 55633  69.9996 285.3213 0003180 270.2541  89.8254 14.98332948 13482,6950.184,96.107,574.259,569.839,0.0
55633.0,STARLINK-5498,PAYLOAD,2023-05-13 13:10:20,14.98331644,0.0003179,69.9996,284.3114,270.092,89.9875,4.3277e-05,4.23e-06,0.0,0 STARLINK-5498,1 55633U 23021F   23133.54884578  .00000423  00000-0  43277-4 0  9997,2 55633  69.9996 284.3114 0003179 270.0920  89.9875 14.98331644 13840,6950.188,96.107,574.262,569.843,0.0
55633.0,STARLINK-5498,PAYLOAD,2023-05-13 19:34:52,14.98334992,0.0003196,69.9996,283.6381,270.072,90.0073,4.7093e-05,4.69e-06,0.0,0 STARLINK-5498,1 55633U 23021F   23133.81588287  .00000469  00000-0  47093-4 0  9995,2 55633  69.9996 283.6381 0003196 270.0720  90.0073 14.98334992 13881,6950.177,96.107,574.264,569.821,0.0
55633.0,STARLINK-5498,PAYLOAD,2023-05-14 03:35:33,14.98330155,0.0003169,69.9996,282.7969,273.5344,86.5452,-2.0836e-05,-3.42e-06,0.0,0 STARLINK-5498,1 55633U 23021F   23134.14968750 -.00000342  00000-0 -20836-4 0  9997,2 55633  69.9996 282.7969 0003169 273.5344  86.5452 14.98330155 13634,6950.192,96.107,574.26,569.855,0.0
55633.0,STARLINK-5498,PAYLOAD,2023-05-14 13:12:21,14.98324944,0.0003239,69.9997,281.787,269.3782,90.7006,2.6361e-05,2.21e-06,0.0,0 STARLINK-5498,1 55633U 23021F   23134.55024985  .00000221  00000-0  26361-4 0  9998,2 55633  69.9997 281.7870 0003239 269.3782  90.7006 14.98324944 13992,6950.209,96.107,574.325,569.822,0.0
55633.0,STARLINK-5498,PAYLOAD,2023-05-14 19:36:53,14.98324773,0.0003169,69.9998,281.1121,267.3906,92.6891,7.2907e-05,7.77e-06,0.0,0 STARLINK-5498,1 55633U 23021F   23134.81728889  .00000777  00000-0  72907-4 0  9994,2 55633  69.9998 281.1121 0003169 267.3906  92.6891 14.98324773 14033,6950.209,96.107,574.277,569.872,0.0
55633.0,STARLINK-5498,PAYLOAD,2023-05-15 03:37:34,14.98328141,0.0003173,69.9999,280.2706,268.5532,91.5264,-1.0978e-05,-2.24e-06,0.0,0 STARLINK-5498,1 55633U 23021F   23135.15108915 -.00000224  00000-0 -10978-4 0  9993,2 55633  69.9999 280.2706 0003173 268.5532  91.5264 14.98328141 13782,6950.199,96.107,574.269,569.858,0.0
55633.0,STARLINK-5498,PAYLOAD,2023-05-15 13:14:22,14.98329427,0.0003235,69.9994,279.2606,268.1823,91.8966,2.6113e-05,2.19e-06,0.0,0 STARLINK-5498,1 55633U 23021F   23135.55164732  .00000219  00000-0  26113-4 0  9996,2 55633  69.9994 279.2606 0003235 268.1823  91.8966 14.98329427 14143,6950.195,96.107,574.308,569.811,0.0
55633.0,STARLINK-5498,PAYLOAD,2023-05-15 16:26:38,14.98330505,0.0003173,69.9996,278.9242,267.2467,92.8329,3.4746e-05,3.22e-06,0.0,0 STARLINK-5498,1 55633U 23021F   23135.68516662  .00000322  00000-0  34746-4 0  9999,2 55633  69.9996 278.9242 0003173 267.2467  92.8329 14.98330505 14167,6950.191,96.107,574.262,569.851,0.0
55633.0,STARLINK-5498,PAYLOAD,2023-05-16 13:16:23,14.98332196,0.0002938,69.9995,276.736,269.4092,90.6731,-2.49e-05,-3.9e-06,0.0,0 STARLINK-5498,1 55633U 23021F   23136.55304836 -.00000390  00000-0 -24900-4 0  9992,2 55633  69.9995 276.7360 0002938 269.4092  90.6731 14.98332196 13990,6950.186,96.107,574.093,570.009,0.0
55633.0,STARLINK-5498,PAYLOAD,2023-05-17 18:06:48,14.98331229,0.0003208,69.9998,273.7067,268.3755,91.7036,5.2567e-05,5.34e-06,0.0,0 STARLINK-5498,1 55633U 23021F   23137.75472602  .00000534  00000-0  52567-4 0  9990,2 55633  69.9998 273.7067 0003208 268.3755  91.7036 14.98331229 14176,6950.189,96.107,574.284,569.824,0.0
55633.0,STARLINK-5498,PAYLOAD,2023-05-18 13:20:25,14.98330313,0.0003222,69.9998,271.6866,270.1352,89.9438,1.151e-05,4.4e-07,0.0,0 STARLINK-5498,1 55633U 23021F   23138.55584724  .00000044  00000-0  11510-4 0  9997,2 55633  69.9998 271.6866 0003222 270.1352  89.9438 14.98330313 14594,6950.192,96.107,574.296,569.818,0.0
55633.0,STARLINK-5498,PAYLOAD,2023-05-19 02:09:29,14.98331031,0.0003216,69.9999,270.3398,271.0622,89.0169,2.2128e-05,1.71e-06,0.0,0 STARLINK-5498,1 55633U 23021F   23139.08992611  .00000171  00000-0  22128-4 0  9992,2 55633  69.9999 270.3398 0003216 271.0622  89.0169 14.98331031 14370,6950.19,96.107,574.29,569.82,0.0
55633.0,STARLINK-5498,PAYLOAD,2023-05-19 11:46:18,14.98329242,0.0003194,69.9999,269.3299,270.788,89.2913,-2.6717e-06,-1.25e-06,0.0,0 STARLINK-5498,1 55633U 23021F   23139.49048795 -.00000125  00000-0 -26717-5 0  9992,2 55633  69.9999 269.3299 0003194 270.7880  89.2913 14.98329242 14735,6950.195,96.107,574.28,569.84,0.0
55633.0,STARLINK-5498,PAYLOAD,2023-05-20 02:11:30,14.98330403,0.0003186,70.0001,267.8148,271.4104,88.669,1.6272e-05,1.01e-06,0.0,0 STARLINK-5498,1 55633U 23021F   23140.09132670  .00000101  00000-0  16272-4 0  9992,2 55633  70.0001 267.8148 0003186 271.4104  88.6690 14.98330403 14529,6950.192,96.107,574.271,569.842,0.0
